[{"OBJECT_NAME":"YUNHAI-2 02F","OBJECT_ID":"2024-052F","EPOCH":"2026-03-09T21:57:33.541056","MEAN_MOTION":14.27880758,"ECCENTRICITY":0.00054431,"INCLINATION":50.0098,"RA_OF_ASC_NODE":263.5952,"ARG_OF_PERICENTER":191.0997,"MEAN_ANOMALY":168.9799,"EPHEMERIS_TYPE":0,"CLASSIFICATION_TYPE":"U","NORAD_CAT_ID":59285,"ELEMENT_SET_NO":999,"REV_AT_EPOCH":10497,"BSTAR":0.0001263727,"MEAN_MOTION_DOT":1.54e-6,"MEAN_MOTION_DDOT":0},{"OBJECT_NAME":"NOAA 10","OBJECT_ID":"1986-073A","EPOCH":"2026-03-09T23:05:55.311072","MEAN_MOTION":14.29144492,"ECCENTRICITY":0.0011047,"INCLINATION":98.7001,"RA_OF_ASC_NODE":62.3546,"ARG_OF_PERICENTER":288.3628,"MEAN_ANOMALY":125.9352,"EPHEMERIS_TYPE":0,"CLASSIFICATION_TYPE":"U","NORAD_CAT_ID":16969,"ELEMENT_SET_NO":999,"REV_AT_EPOCH":5524,"BSTAR":9.9116792e-5,"MEAN_MOTION_DOT":2.07e-6,"MEAN_MOTION_DDOT":0}]
